{"fetched_at":"2026-07-17T17:38:20.702Z","source":"https://celestrak.org/NORAD/elements/gp.php?NAME=ICEYE&FORMAT=JSON","constellation":"iceye","records":[{"OBJECT_NAME":"ICEYE-X2","OBJECT_ID":"2018-099AU","EPOCH":"2026-07-17T06:26:15.196416","CLASSIFICATION_TYPE":"U","MEAN_MOTION":15.18054426,"ECCENTRICITY":0.00100305,"INCLINATION":97.4337,"RA_OF_ASC_NODE":251.5828,"ARG_OF_PERICENTER":187.3171,"MEAN_ANOMALY":172.7918,"EPHEMERIS_TYPE":0,"NORAD_CAT_ID":43800,"ELEMENT_SET_NO":999,"REV_AT_EPOCH":41738,"BSTAR":0.00012563206,"MEAN_MOTION_DOT":0.00002493,"MEAN_MOTION_DDOT":0},{"OBJECT_NAME":"ICEYE-X4","OBJECT_ID":"2019-038D","EPOCH":"2026-07-17T06:57:26.978976","CLASSIFICATION_TYPE":"U","MEAN_MOTION":15.29909165,"ECCENTRICITY":0.00130934,"INCLINATION":97.8742,"RA_OF_ASC_NODE":232.9844,"ARG_OF_PERICENTER":190.6313,"MEAN_ANOMALY":169.4652,"EPHEMERIS_TYPE":0,"NORAD_CAT_ID":44390,"ELEMENT_SET_NO":999,"REV_AT_EPOCH":38640,"BSTAR":0.00022733393,"MEAN_MOTION_DOT":0.00006514,"MEAN_MOTION_DDOT":0},{"OBJECT_NAME":"ICEYE-X7","OBJECT_ID":"2020-068L","EPOCH":"2026-07-17T06:07:46.964352","CLASSIFICATION_TYPE":"U","MEAN_MOTION":15.32122214,"ECCENTRICITY":0.00062346,"INCLINATION":97.7513,"RA_OF_ASC_NODE":166.1647,"ARG_OF_PERICENTER":204.349,"MEAN_ANOMALY":155.7457,"EPHEMERIS_TYPE":0,"NORAD_CAT_ID":46496,"ELEMENT_SET_NO":999,"REV_AT_EPOCH":31939,"BSTAR":0.00019407059,"MEAN_MOTION_DOT":0.00005937,"MEAN_MOTION_DDOT":0},{"OBJECT_NAME":"ICEYE-X6","OBJECT_ID":"2020-068M","EPOCH":"2026-07-17T06:01:34.774752","CLASSIFICATION_TYPE":"U","MEAN_MOTION":15.0467338,"ECCENTRICITY":0.00070576,"INCLINATION":98.0992,"RA_OF_ASC_NODE":193.3646,"ARG_OF_PERICENTER":4.7161,"MEAN_ANOMALY":355.4129,"EPHEMERIS_TYPE":0,"NORAD_CAT_ID":46497,"ELEMENT_SET_NO":999,"REV_AT_EPOCH":31775,"BSTAR":0.000099744529,"MEAN_MOTION_DOT":0.00001335,"MEAN_MOTION_DDOT":0},{"OBJECT_NAME":"ICEYE-X21","OBJECT_ID":"2023-001AS","EPOCH":"2026-06-24T05:11:18.420288","CLASSIFICATION_TYPE":"U","MEAN_MOTION":16.24069885,"ECCENTRICITY":0.00123774,"INCLINATION":97.3001,"RA_OF_ASC_NODE":262.6152,"ARG_OF_PERICENTER":285.9702,"MEAN_ANOMALY":74.0225,"EPHEMERIS_TYPE":0,"NORAD_CAT_ID":55049,"ELEMENT_SET_NO":999,"REV_AT_EPOCH":19475,"BSTAR":0.000602142,"MEAN_MOTION_DOT":0.01585954,"MEAN_MOTION_DDOT":0.000002396838},{"OBJECT_NAME":"ICEYE-X25","OBJECT_ID":"2023-084AH","EPOCH":"2026-07-17T07:14:00.102048","CLASSIFICATION_TYPE":"U","MEAN_MOTION":15.62923064,"ECCENTRICITY":0.00044176,"INCLINATION":97.5919,"RA_OF_ASC_NODE":346.692,"ARG_OF_PERICENTER":178.7063,"MEAN_ANOMALY":181.4207,"EPHEMERIS_TYPE":0,"NORAD_CAT_ID":56963,"ELEMENT_SET_NO":999,"REV_AT_EPOCH":17267,"BSTAR":0.00019471576,"MEAN_MOTION_DOT":0.00017495,"MEAN_MOTION_DDOT":0},{"OBJECT_NAME":"ICEYE-X31","OBJECT_ID":"2023-174AJ","EPOCH":"2026-07-17T07:45:29.414304","CLASSIFICATION_TYPE":"U","MEAN_MOTION":15.35218046,"ECCENTRICITY":0.00029257,"INCLINATION":97.3769,"RA_OF_ASC_NODE":274.0731,"ARG_OF_PERICENTER":180.2403,"MEAN_ANOMALY":179.8839,"EPHEMERIS_TYPE":0,"NORAD_CAT_ID":58288,"ELEMENT_SET_NO":999,"REV_AT_EPOCH":14937,"BSTAR":0.00026190883,"MEAN_MOTION_DOT":0.00008876,"MEAN_MOTION_DDOT":0},{"OBJECT_NAME":"ICEYE-X34","OBJECT_ID":"2023-174AQ","EPOCH":"2026-07-16T18:51:22.266432","CLASSIFICATION_TYPE":"U","MEAN_MOTION":15.71656743,"ECCENTRICITY":0.00018347,"INCLINATION":97.3858,"RA_OF_ASC_NODE":290.5429,"ARG_OF_PERICENTER":215.0356,"MEAN_ANOMALY":145.0787,"EPHEMERIS_TYPE":0,"NORAD_CAT_ID":58294,"ELEMENT_SET_NO":999,"REV_AT_EPOCH":15038,"BSTAR":0.00087536601,"MEAN_MOTION_DOT":0.00113736,"MEAN_MOTION_DDOT":0},{"OBJECT_NAME":"ICEYE-X35","OBJECT_ID":"2023-174AY","EPOCH":"2026-07-17T07:32:00.629088","CLASSIFICATION_TYPE":"U","MEAN_MOTION":15.55315663,"ECCENTRICITY":0.00075484,"INCLINATION":97.3784,"RA_OF_ASC_NODE":283.7795,"ARG_OF_PERICENTER":101.012,"MEAN_ANOMALY":259.1984,"EPHEMERIS_TYPE":0,"NORAD_CAT_ID":58302,"ELEMENT_SET_NO":999,"REV_AT_EPOCH":15002,"BSTAR":0.00048319968,"MEAN_MOTION_DOT":0.00032791,"MEAN_MOTION_DDOT":0},{"OBJECT_NAME":"ICEYE-X38","OBJECT_ID":"2024-043C","EPOCH":"2026-07-17T08:11:56.311008","CLASSIFICATION_TYPE":"U","MEAN_MOTION":15.13102168,"ECCENTRICITY":0.00021351,"INCLINATION":97.8442,"RA_OF_ASC_NODE":342.9287,"ARG_OF_PERICENTER":14.9301,"MEAN_ANOMALY":345.1991,"EPHEMERIS_TYPE":0,"NORAD_CAT_ID":59100,"ELEMENT_SET_NO":999,"REV_AT_EPOCH":11623,"BSTAR":0.00015101963,"MEAN_MOTION_DOT":0.00002603,"MEAN_MOTION_DDOT":0},{"OBJECT_NAME":"ICEYE-X37","OBJECT_ID":"2024-043E","EPOCH":"2026-07-17T08:11:21.781248","CLASSIFICATION_TYPE":"U","MEAN_MOTION":15.06298897,"ECCENTRICITY":0.00138808,"INCLINATION":97.8344,"RA_OF_ASC_NODE":335.8252,"ARG_OF_PERICENTER":266.2932,"MEAN_ANOMALY":93.6707,"EPHEMERIS_TYPE":0,"NORAD_CAT_ID":59102,"ELEMENT_SET_NO":999,"REV_AT_EPOCH":12962,"BSTAR":0.00013376388,"MEAN_MOTION_DOT":0.00001903,"MEAN_MOTION_DDOT":0},{"OBJECT_NAME":"ICEYE-X36","OBJECT_ID":"2024-043F","EPOCH":"2026-07-17T03:04:30.143424","CLASSIFICATION_TYPE":"U","MEAN_MOTION":15.07243382,"ECCENTRICITY":0.00054438,"INCLINATION":97.8409,"RA_OF_ASC_NODE":336.7424,"ARG_OF_PERICENTER":206.3675,"MEAN_ANOMALY":153.7276,"EPHEMERIS_TYPE":0,"NORAD_CAT_ID":59103,"ELEMENT_SET_NO":999,"REV_AT_EPOCH":12965,"BSTAR":0.00016581408,"MEAN_MOTION_DOT":0.00002434,"MEAN_MOTION_DDOT":0},{"OBJECT_NAME":"ICEYE-X43","OBJECT_ID":"2024-149BZ","EPOCH":"2026-07-17T04:28:26.976576","CLASSIFICATION_TYPE":"U","MEAN_MOTION":14.99789309,"ECCENTRICITY":0.00064289,"INCLINATION":97.6794,"RA_OF_ASC_NODE":274.7489,"ARG_OF_PERICENTER":338.9157,"MEAN_ANOMALY":21.18,"EPHEMERIS_TYPE":0,"NORAD_CAT_ID":60539,"ELEMENT_SET_NO":999,"REV_AT_EPOCH":10461,"BSTAR":0.000054805782,"MEAN_MOTION_DOT":0.00000619,"MEAN_MOTION_DDOT":0},{"OBJECT_NAME":"ICEYE-X39","OBJECT_ID":"2024-149CG","EPOCH":"2026-07-16T18:17:48.321312","CLASSIFICATION_TYPE":"U","MEAN_MOTION":15.00080353,"ECCENTRICITY":0.00069089,"INCLINATION":97.6792,"RA_OF_ASC_NODE":274.388,"ARG_OF_PERICENTER":42.3931,"MEAN_ANOMALY":317.7826,"EPHEMERIS_TYPE":0,"NORAD_CAT_ID":60546,"ELEMENT_SET_NO":999,"REV_AT_EPOCH":10455,"BSTAR":0.00018654429,"MEAN_MOTION_DOT":0.00002266,"MEAN_MOTION_DDOT":0},{"OBJECT_NAME":"ICEYE-X33","OBJECT_ID":"2024-149CJ","EPOCH":"2026-07-17T04:04:39.090432","CLASSIFICATION_TYPE":"U","MEAN_MOTION":15.00895206,"ECCENTRICITY":0.0001911,"INCLINATION":97.7369,"RA_OF_ASC_NODE":277.1615,"ARG_OF_PERICENTER":73.0376,"MEAN_ANOMALY":287.1057,"EPHEMERIS_TYPE":0,"NORAD_CAT_ID":60548,"ELEMENT_SET_NO":999,"REV_AT_EPOCH":10470,"BSTAR":0.00020545936,"MEAN_MOTION_DOT":0.00002555,"MEAN_MOTION_DDOT":0}]}
