ICEYE-X2                
1 43800U 18099AU  26198.26823144  .00002493  00000+0  12563-3 0  9995
2 43800  97.4337 251.5828 0010030 187.3171 172.7918 15.18054426417387
ICEYE-X4                
1 44390U 19038D   26198.28989559  .00006514  00000+0  22733-3 0  9997
2 44390  97.8742 232.9844 0013093 190.6313 169.4652 15.29909165386401
ICEYE-X7                
1 46496U 20068L   26198.25540468  .00005937  00000+0  19407-3 0  9992
2 46496  97.7513 166.1647 0006234 204.3490 155.7457 15.32122214319393
ICEYE-X6                
1 46497U 20068M   26198.25109693  .00001335  00000+0  99745-4 0  9996
2 46497  98.0992 193.3646 0007057   4.7161 355.4129 15.04673380317758
ICEYE-X21               
1 55049U 23001AS  26175.21618542  .01585954  23968-5  60214-3 0  9995
2 55049  97.3001 262.6152 0012377 285.9702  74.0225 16.24069885194757
ICEYE-X25               
1 56963U 23084AH  26198.30139007  .00017495  00000+0  19472-3 0  9996
2 56963  97.5919 346.6920 0004417 178.7063 181.4207 15.62923064172673
ICEYE-X31               
1 58288U 23174AJ  26198.32325711  .00008876  00000+0  26191-3 0  9998
2 58288  97.3769 274.0731 0002925 180.2403 179.8839 15.35218046149378
ICEYE-X34               
1 58294U 23174AQ  26197.78567438  .00113736  00000+0  87537-3 0  9991
2 58294  97.3858 290.5429 0001834 215.0356 145.0787 15.71656743150383
ICEYE-X35               
1 58302U 23174AY  26198.31389617  .00032791  00000+0  48320-3 0  9990
2 58302  97.3784 283.7795 0007548 101.0120 259.1984 15.55315663150024
ICEYE-X38               
1 59100U 24043C   26198.34162397  .00002603  00000+0  15102-3 0  9991
2 59100  97.8442 342.9287 0002135  14.9301 345.1991 15.13102168116238
ICEYE-X37               
1 59102U 24043E   26198.34122432  .00001903  00000+0  13376-3 0  9992
2 59102  97.8344 335.8252 0013880 266.2932  93.6707 15.06298897129629
ICEYE-X36               
1 59103U 24043F   26198.12812666  .00002434  00000+0  16581-3 0  9995
2 59103  97.8409 336.7424 0005443 206.3675 153.7276 15.07243382129650
ICEYE-X43               
1 60539U 24149BZ  26198.18642334  .00000619  00000+0  54806-4 0  9992
2 60539  97.6794 274.7489 0006428 338.9157  21.1800 14.99789309104617
ICEYE-X39               
1 60546U 24149CG  26197.76236483  .00002266  00000+0  18654-3 0  9997
2 60546  97.6792 274.3880 0006908  42.3931 317.7826 15.00080353104554
ICEYE-X33               
1 60548U 24149CJ  26198.16989688  .00002555  00000+0  20546-3 0  9990
2 60548  97.7369 277.1615 0001911  73.0376 287.1057 15.00895206104701
